M2 PATHFINDER           
1 45727U 20037E   26068.47969609  .00004468  00000+0  32592-3 0  9994
2 45727  97.8158 258.5983 0012405 127.8041 232.4310 15.04175941310501
STARLINK-6077           
1 56097U 23046E   26067.52008523  .00000439  00000+0  47584-4 0  9995
2 56097  43.0029 113.4559 0001036 257.3211 102.7515 15.02540204162481
